[{"OBJECT_NAME":"TIANHUI 2-02B","OBJECT_ID":"2021-074B","EPOCH":"2026-03-09T12:16:24.599712","MEAN_MOTION":15.16781044,"ECCENTRICITY":0.0002039,"INCLINATION":97.4828,"RA_OF_ASC_NODE":73.0429,"ARG_OF_PERICENTER":85.7356,"MEAN_ANOMALY":274.411,"EPHEMERIS_TYPE":0,"CLASSIFICATION_TYPE":"U","NORAD_CAT_ID":49072,"ELEMENT_SET_NO":999,"REV_AT_EPOCH":25216,"BSTAR":0.0001397,"MEAN_MOTION_DOT":2.676e-5,"MEAN_MOTION_DDOT":0},{"OBJECT_NAME":"COSMOS 2251 DEB","OBJECT_ID":"1993-036BDM","EPOCH":"2026-03-07T08:26:45.291840","MEAN_MOTION":15.06951358,"ECCENTRICITY":0.00416459,"INCLINATION":73.8833,"RA_OF_ASC_NODE":199.9445,"ARG_OF_PERICENTER":129.9164,"MEAN_ANOMALY":230.5698,"EPHEMERIS_TYPE":0,"CLASSIFICATION_TYPE":"U","NORAD_CAT_ID":36551,"ELEMENT_SET_NO":999,"REV_AT_EPOCH":68204,"BSTAR":0.0035281021,"MEAN_MOTION_DOT":0.00054188,"MEAN_MOTION_DDOT":0}]
